CCSDS_OMM_VERS = 2.0
CREATION_DATE  = 
ORIGINATOR     = 

OBJECT_NAME    = SL-14 R/B
OBJECT_ID      = 1986-046B
CENTER_NAME    = EARTH
REF_FRAME      = TEME
TIME_SYSTEM    = UTC
MEAN_ELEMENT_THEORY = SGP/SGP4

EPOCH          = 2025-12-01T01:28:08.109408
MEAN_MOTION    = 14.85464955
ECCENTRICITY   = .00228044
INCLINATION    = 82.4813
RA_OF_ASC_NODE = 173.3433
ARG_OF_PERICENTER = 190.4811
MEAN_ANOMALY   = 169.5933

EPHEMERIS_TYPE = 0
CLASSIFICATION_TYPE = U
NORAD_CAT_ID   = 16792
ELEMENT_SET_NO = 999
REV_AT_EPOCH   = 11176
BSTAR          = .60342388E-4
MEAN_MOTION_DOT = .547E-5
MEAN_MOTION_DDOT = 0

CCSDS_OMM_VERS = 2.0
CREATION_DATE  = 
ORIGINATOR     = 

OBJECT_NAME    = SL-14 R/B
OBJECT_ID      = 1986-055B
CENTER_NAME    = EARTH
REF_FRAME      = TEME
TIME_SYSTEM    = UTC
MEAN_ELEMENT_THEORY = SGP/SGP4

EPOCH          = 2025-12-01T10:01:28.385760
MEAN_MOTION    = 14.85512785
ECCENTRICITY   = .0017662
INCLINATION    = 82.5214
RA_OF_ASC_NODE = 219.0105
ARG_OF_PERICENTER = 300.0788
MEAN_ANOMALY   = 233.7728

EPHEMERIS_TYPE = 0
CLASSIFICATION_TYPE = U
NORAD_CAT_ID   = 16882
ELEMENT_SET_NO = 999
REV_AT_EPOCH   = 10477
BSTAR          = .6805E-4
MEAN_MOTION_DOT = .613E-5
MEAN_MOTION_DDOT = 0

CCSDS_OMM_VERS = 2.0
CREATION_DATE  = 
ORIGINATOR     = 

OBJECT_NAME    = AJISAI (EGS)
OBJECT_ID      = 1986-061A
CENTER_NAME    = EARTH
REF_FRAME      = TEME
TIME_SYSTEM    = UTC
MEAN_ELEMENT_THEORY = SGP/SGP4

EPOCH          = 2025-12-01T12:22:55.932960
MEAN_MOTION    = 12.44514117
ECCENTRICITY   = .0011258
INCLINATION    = 50.0113
RA_OF_ASC_NODE = 35.2294
ARG_OF_PERICENTER = 37.7312
MEAN_ANOMALY   = 102.7419

EPHEMERIS_TYPE = 0
CLASSIFICATION_TYPE = U
NORAD_CAT_ID   = 16908
ELEMENT_SET_NO = 999
REV_AT_EPOCH   = 45577
BSTAR          = -.24176E-4
MEAN_MOTION_DOT = -.101E-5
MEAN_MOTION_DDOT = 0

CCSDS_OMM_VERS = 2.0
CREATION_DATE  = 
ORIGINATOR     = 

OBJECT_NAME    = COSMOS 1812
OBJECT_ID      = 1987-003A
CENTER_NAME    = EARTH
REF_FRAME      = TEME
TIME_SYSTEM    = UTC
MEAN_ELEMENT_THEORY = SGP/SGP4

EPOCH          = 2025-12-01T09:57:17.720352
MEAN_MOTION    = 15.72770123
ECCENTRICITY   = .0006921
INCLINATION    = 82.4865
RA_OF_ASC_NODE = 304.2516
ARG_OF_PERICENTER = 101.7182
MEAN_ANOMALY   = 258.4858

EPHEMERIS_TYPE = 0
CLASSIFICATION_TYPE = U
NORAD_CAT_ID   = 17295
ELEMENT_SET_NO = 999
REV_AT_EPOCH   = 12887
BSTAR          = .71318E-3
MEAN_MOTION_DOT = .97126E-3
MEAN_MOTION_DDOT = 0

CCSDS_OMM_VERS = 2.0
CREATION_DATE  = 
ORIGINATOR     = 

OBJECT_NAME    = SL-14 R/B
OBJECT_ID      = 1987-024B
CENTER_NAME    = EARTH
REF_FRAME      = TEME
TIME_SYSTEM    = UTC
MEAN_ELEMENT_THEORY = SGP/SGP4

EPOCH          = 2025-12-01T01:30:46.428768
MEAN_MOTION    = 14.86005341
ECCENTRICITY   = .00171597
INCLINATION    = 82.5281
RA_OF_ASC_NODE = 185.4232
ARG_OF_PERICENTER = 224.2527
MEAN_ANOMALY   = 135.7319

EPHEMERIS_TYPE = 0
CLASSIFICATION_TYPE = U
NORAD_CAT_ID   = 17567
ELEMENT_SET_NO = 999
REV_AT_EPOCH   = 7348
BSTAR          = .57754053E-4
MEAN_MOTION_DOT = .53E-5
MEAN_MOTION_DDOT = 0

CCSDS_OMM_VERS = 2.0
CREATION_DATE  = 
ORIGINATOR     = 

OBJECT_NAME    = COSMOS 1833
OBJECT_ID      = 1987-027A
CENTER_NAME    = EARTH
REF_FRAME      = TEME
TIME_SYSTEM    = UTC
MEAN_ELEMENT_THEORY = SGP/SGP4

EPOCH          = 2025-12-01T05:59:25.992960
MEAN_MOTION    = 14.13018188
ECCENTRICITY   = .0022048
INCLINATION    = 70.9124
RA_OF_ASC_NODE = 172.9319
ARG_OF_PERICENTER = 347.9238
MEAN_ANOMALY   = 12.1351

EPHEMERIS_TYPE = 0
CLASSIFICATION_TYPE = U
NORAD_CAT_ID   = 17589
ELEMENT_SET_NO = 999
REV_AT_EPOCH   = 99640
BSTAR          = .38419E-4
MEAN_MOTION_DOT = .24E-6
MEAN_MOTION_DDOT = 0

CCSDS_OMM_VERS = 2.0
CREATION_DATE  = 
ORIGINATOR     = 

OBJECT_NAME    = SL-16 R/B
OBJECT_ID      = 1987-027B
CENTER_NAME    = EARTH
REF_FRAME      = TEME
TIME_SYSTEM    = UTC
MEAN_ELEMENT_THEORY = SGP/SGP4

EPOCH          = 2025-12-01T12:12:43.045056
MEAN_MOTION    = 14.17151625
ECCENTRICITY   = .0007441
INCLINATION    = 71.0017
RA_OF_ASC_NODE = 123.3829
ARG_OF_PERICENTER = 271.3934
MEAN_ANOMALY   = 88.6337

EPHEMERIS_TYPE = 0
CLASSIFICATION_TYPE = U
NORAD_CAT_ID   = 17590
ELEMENT_SET_NO = 999
REV_AT_EPOCH   = 143
BSTAR          = .76573E-4
MEAN_MOTION_DOT = .106E-5
MEAN_MOTION_DDOT = 0

CCSDS_OMM_VERS = 2.0
CREATION_DATE  = 
ORIGINATOR     = 

OBJECT_NAME    = SL-14 R/B
OBJECT_ID      = 1987-038B
CENTER_NAME    = EARTH
REF_FRAME      = TEME
TIME_SYSTEM    = UTC
MEAN_ELEMENT_THEORY = SGP/SGP4

EPOCH          = 2025-12-01T09:52:41.230848
MEAN_MOTION    = 14.85244427
ECCENTRICITY   = .0020541
INCLINATION    = 82.5027
RA_OF_ASC_NODE = 29.3701
ARG_OF_PERICENTER = 126.9787
MEAN_ANOMALY   = 233.3314

EPHEMERIS_TYPE = 0
CLASSIFICATION_TYPE = U
NORAD_CAT_ID   = 17912
ELEMENT_SET_NO = 999
REV_AT_EPOCH   = 6464
BSTAR          = .63827E-4
MEAN_MOTION_DOT = .574E-5
MEAN_MOTION_DDOT = 0

CCSDS_OMM_VERS = 2.0
CREATION_DATE  = 
ORIGINATOR     = 

OBJECT_NAME    = COSMOS 1844
OBJECT_ID      = 1987-041A
CENTER_NAME    = EARTH
REF_FRAME      = TEME
TIME_SYSTEM    = UTC
MEAN_ELEMENT_THEORY = SGP/SGP4

EPOCH          = 2025-12-01T11:01:47.686080
MEAN_MOTION    = 14.14527918
ECCENTRICITY   = .00305
INCLINATION    = 70.8992
RA_OF_ASC_NODE = 241.3621
ARG_OF_PERICENTER = 174.9302
MEAN_ANOMALY   = 185.2134

EPHEMERIS_TYPE = 0
CLASSIFICATION_TYPE = U
NORAD_CAT_ID   = 17973
ELEMENT_SET_NO = 999
REV_AT_EPOCH   = 98969
BSTAR          = -.55493E-4
MEAN_MOTION_DOT = -.155E-5
MEAN_MOTION_DDOT = 0

CCSDS_OMM_VERS = 2.0
CREATION_DATE  = 
ORIGINATOR     = 

OBJECT_NAME    = SL-14 R/B
OBJECT_ID      = 1987-055B
CENTER_NAME    = EARTH
REF_FRAME      = TEME
TIME_SYSTEM    = UTC
MEAN_ELEMENT_THEORY = SGP/SGP4

EPOCH          = 2025-12-01T09:43:51.942720
MEAN_MOTION    = 14.85501788
ECCENTRICITY   = .0020182
INCLINATION    = 82.4999
RA_OF_ASC_NODE = 81.6693
ARG_OF_PERICENTER = 342.5535
MEAN_ANOMALY   = 17.4985

EPHEMERIS_TYPE = 0
CLASSIFICATION_TYPE = U
NORAD_CAT_ID   = 18153
ELEMENT_SET_NO = 999
REV_AT_EPOCH   = 5534
BSTAR          = .73369E-4
MEAN_MOTION_DOT = .659E-5
MEAN_MOTION_DDOT = 0

CCSDS_OMM_VERS = 2.0
CREATION_DATE  = 
ORIGINATOR     = 

OBJECT_NAME    = COSMOS 1867
OBJECT_ID      = 1987-060A
CENTER_NAME    = EARTH
REF_FRAME      = TEME
TIME_SYSTEM    = UTC
MEAN_ELEMENT_THEORY = SGP/SGP4

EPOCH          = 2025-12-01T10:11:49.135200
MEAN_MOTION    = 14.31483249
ECCENTRICITY   = .0013632
INCLINATION    = 65.0099
RA_OF_ASC_NODE = 221.8884
ARG_OF_PERICENTER = 270.0296
MEAN_ANOMALY   = 89.9227

EPHEMERIS_TYPE = 0
CLASSIFICATION_TYPE = U
NORAD_CAT_ID   = 18187
ELEMENT_SET_NO = 999
REV_AT_EPOCH   = 587
BSTAR          = .26555E-4
MEAN_MOTION_DOT = -.3E-6
MEAN_MOTION_DDOT = 0

CCSDS_OMM_VERS = 2.0
CREATION_DATE  = 
ORIGINATOR     = 

OBJECT_NAME    = COSMOS 1892
OBJECT_ID      = 1987-088A
CENTER_NAME    = EARTH
REF_FRAME      = TEME
TIME_SYSTEM    = UTC
MEAN_ELEMENT_THEORY = SGP/SGP4

EPOCH          = 2025-12-01T00:55:07.446432
MEAN_MOTION    = 16.29539597
ECCENTRICITY   = .00059314
INCLINATION    = 82.4586
RA_OF_ASC_NODE = 56.6895
ARG_OF_PERICENTER = 270.0126
MEAN_ANOMALY   = 90.0488

EPHEMERIS_TYPE = 0
CLASSIFICATION_TYPE = U
NORAD_CAT_ID   = 18421
ELEMENT_SET_NO = 999
REV_AT_EPOCH   = 8945
BSTAR          = .58967791E-3
MEAN_MOTION_DOT = .2459456E-1
MEAN_MOTION_DDOT = -.1227428E-5

