SL-14 R/B               
1 16792U 86046B   25335.06120497  .00000547  00000+0  60342-4 0  9990
2 16792  82.4813 173.3433 0022804 190.4811 169.5933 14.85464955111760
SL-14 R/B               
1 16882U 86055B   25335.41768965  .00000613  00000+0  68050-4 0  9995
2 16882  82.5214 219.0105 0017662 300.0788 233.7728 14.85512785104772
AJISAI (EGS)            
1 16908U 86061A   25335.51592515 -.00000101  00000+0 -24176-4 0  9993
2 16908  50.0113  35.2294 0011258  37.7312 102.7419 12.44514117455773
COSMOS 1812             
1 17295U 87003A   25335.41478843  .00097126  00000+0  71318-3 0  9996
2 17295  82.4865 304.2516 0006921 101.7182 258.4858 15.72770123128879
SL-14 R/B               
1 17567U 87024B   25335.06303737  .00000530  00000+0  57754-4 0  9993
2 17567  82.5281 185.4232 0017159 224.2527 135.7319 14.86005341 73489
COSMOS 1833             
1 17589U 87027A   25335.24960640  .00000024  00000+0  38419-4 0  9997
2 17589  70.9124 172.9319 0022048 347.9238  12.1351 14.13018188996405
SL-16 R/B               
1 17590U 87027B   25335.50883154  .00000106  00000+0  76573-4 0  9996
2 17590  71.0017 123.3829 0007441 271.3934  88.6337 14.17151625  1439
SL-14 R/B               
1 17912U 87038B   25335.41158832  .00000574  00000+0  63827-4 0  9991
2 17912  82.5027  29.3701 0020541 126.9787 233.3314 14.85244427 64640
COSMOS 1844             
1 17973U 87041A   25335.45957970 -.00000155  00000+0 -55493-4 0  9993
2 17973  70.8992 241.3621 0030500 174.9302 185.2134 14.14527918989694
SL-14 R/B               
1 18153U 87055B   25335.40546230  .00000659  00000+0  73369-4 0  9996
2 18153  82.4999  81.6693 0020182 342.5535  17.4985 14.85501788 55342
COSMOS 1867             
1 18187U 87060A   25335.42487425 -.00000030  00000+0  26555-4 0  9990
2 18187  65.0099 221.8884 0013632 270.0296  89.9227 14.31483249  5876
COSMOS 1892             
1 18421U 87088A   25335.03828063  .02459456 -12274-5  58968-3 0  9991
2 18421  82.4586  56.6895 0005931 270.0126  90.0488 16.29539597 89457
